{
    "links": {
        "self": "http://www.neowsapp.com/rest/v1/neo/3789973?api_key=iIulBulltgU6a56xZRHN4H3l9WmuAYTsLGpBGhQ2"
    },
    "id": "3789973",
    "neo_reference_id": "3789973",
    "name": "(2017 WH28)",
    "designation": "2017 WH28",
    "nasa_jpl_url": "http://ssd.jpl.nasa.gov/sbdb.cgi?sstr=3789973",
    "absolute_magnitude_h": 24.5,
    "estimated_diameter": {
        "kilometers": {
            "estimated_diameter_min": 0.0334622374,
            "estimated_diameter_max": 0.0748238376
        },
        "meters": {
            "estimated_diameter_min": 33.4622374455,
            "estimated_diameter_max": 74.8238376074
        },
        "miles": {
            "estimated_diameter_min": 0.0207924639,
            "estimated_diameter_max": 0.0464933628
        },
        "feet": {
            "estimated_diameter_min": 109.7842471007,
            "estimated_diameter_max": 245.4850393757
        }
    },
    "is_potentially_hazardous_asteroid": false,
    "close_approach_data": [
        {
            "close_approach_date": "2017-11-30",
            "close_approach_date_full": "2017-Nov-30 06:54",
            "epoch_date_close_approach": 1512024840000,
            "relative_velocity": {
                "kilometers_per_second": "14.7092609404",
                "kilometers_per_hour": "52953.3393853694",
                "miles_per_hour": "32903.1457975369"
            },
            "miss_distance": {
                "astronomical": "0.0502788736",
                "lunar": "19.5584818304",
                "kilometers": "7521612.396559232",
                "miles": "4673713.2202601216"
            },
            "orbiting_body": "Earth"
        },
        {
            "close_approach_date": "2021-05-12",
            "close_approach_date_full": "2021-May-12 04:50",
            "epoch_date_close_approach": 1620795000000,
            "relative_velocity": {
                "kilometers_per_second": "22.4618840419",
                "kilometers_per_hour": "80862.7825509008",
                "miles_per_hour": "50244.9884133639"
            },
            "miss_distance": {
                "astronomical": "0.434440099",
                "lunar": "168.997198511",
                "kilometers": "64991313.45298913",
                "miles": "40383729.561264794"
            },
            "orbiting_body": "Earth"
        },
        {
            "close_approach_date": "2167-12-04",
            "close_approach_date_full": "2167-Dec-04 00:32",
            "epoch_date_close_approach": 6245857920000,
            "relative_velocity": {
                "kilometers_per_second": "14.0072963963",
                "kilometers_per_hour": "50426.2670266984",
                "miles_per_hour": "31332.9213088949"
            },
            "miss_distance": {
                "astronomical": "0.0273079479",
                "lunar": "10.6227917331",
                "kilometers": "4085210.839910973",
                "miles": "2538432.3072505074"
            },
            "orbiting_body": "Earth"
        },
        {
            "close_approach_date": "2168-05-26",
            "close_approach_date_full": "2168-May-26 14:15",
            "epoch_date_close_approach": 6260940900000,
            "relative_velocity": {
                "kilometers_per_second": "10.9191464449",
                "kilometers_per_hour": "39308.9272017203",
                "miles_per_hour": "24425.0386826467"
            },
            "miss_distance": {
                "astronomical": "0.4965535007",
                "lunar": "193.1593117723",
                "kilometers": "74283346.045763509",
                "miles": "46157530.8796900642"
            },
            "orbiting_body": "Earth"
        },
        {
            "close_approach_date": "2171-05-16",
            "close_approach_date_full": "2171-May-16 10:04",
            "epoch_date_close_approach": 6354669840000,
            "relative_velocity": {
                "kilometers_per_second": "23.657760328",
                "kilometers_per_hour": "85167.9371808205",
                "miles_per_hour": "52920.044077716"
            },
            "miss_distance": {
                "astronomical": "0.4693836272",
                "lunar": "182.5902309808",
                "kilometers": "70218790.841994064",
                "miles": "43631933.3895795232"
            },
            "orbiting_body": "Earth"
        }
    ],
    "orbital_data": {
        "orbit_id": "3",
        "orbit_determination_date": "2019-07-17 06:12:23",
        "first_observation_date": "2017-11-24",
        "last_observation_date": "2017-11-30",
        "data_arc_in_days": 6,
        "observations_used": 34,
        "orbit_uncertainty": "8",
        "minimum_orbit_intersection": ".0218298",
        "jupiter_tisserand_invariant": "4.733",
        "epoch_osculation": "2458083.5",
        "eccentricity": ".3755626722570725",
        "semi_major_axis": "1.35596841469477",
        "inclination": "18.84646815096539",
        "ascending_node_longitude": "248.013931933354",
        "orbital_period": "576.730324140377",
        "perihelion_distance": ".8467172933758157",
        "perihelion_argument": "246.9984487711966",
        "aphelion_distance": "1.865219536013724",
        "perihelion_time": "2458136.502655502396",
        "mean_anomaly": "326.9152892050492",
        "mean_motion": ".6242085510876926",
        "equinox": "J2000",
        "orbit_class": {
            "orbit_class_type": "APO",
            "orbit_class_description": "Near-Earth asteroid orbits which cross the Earth’s orbit similar to that of 1862 Apollo",
            "orbit_class_range": "a (semi-major axis) > 1.0 AU; q (perihelion) < 1.017 AU"
        }
    },
    "is_sentry_object": false
}